COMMENT,ORIGINATOR,NORAD_CAT_ID,OBJECT_NAME,OBJECT_TYPE,CLASSIFICATION_TYPE,INTLDES,EPOCH,EPOCH_MICROSECONDS,MEAN_MOTION,ECCENTRICITY,INCLINATION,RA_OF_ASC_NODE,ARG_OF_PERICENTER,MEAN_ANOMALY,EPHEMERIS_TYPE,ELEMENT_SET_NO,REV_AT_EPOCH,BSTAR,MEAN_MOTION_DOT,MEAN_MOTION_DDOT,FILE,TLE_LINE0,TLE_LINE1,TLE_LINE2,OBJECT_ID,OBJECT_NUMBER,SEMIMAJOR_AXIS,PERIOD,APOGEE,PERIGEE,DECAYED
GENERATED VIA SPACETRACK.ORG API,18 SPCS,33436,ASTRA 1M,PAYLOAD,U,08057A,2024-01-11 21:24:11,799936,1.00270462,0.0001293,0.0329,79.1873,151.3172,220.609,0,999,3684,0,0.00000132,0,4159545,0 ASTRA 1M,1 33436U 08057A   24011.89180324  .00000132  00000-0  00000-0 0  9998,2 33436   0.0329  79.1873 0001293 151.3172 220.6090  1.00270462 36847,2008-057A,33436,42165.103,1436.116,35792.420,35781.516,0
GENERATED VIA SPACETRACK.ORG API,18 SPCS,23712,USA 115,PAYLOAD,U,95060A,2024-01-11 21:13:10,729344,1.00269504,0.000382,13.7417,10.1478,269.4694,29.5755,0,999,2398,0,-0.00000011,0,4159545,0 USA 115,1 23712U 95060A   24011.88415196 -.00000011  00000-0  00000-0 0  9998,2 23712  13.7417  10.1478 0003820 269.4694  29.5755  1.00269504 23986,1995-060A,23712,42165.371,1436.130,35803.344,35771.129,0
GENERATED VIA SPACETRACK.ORG API,18 SPCS,43454,TITAN 3C TRANSTAGE DEB,DEBRIS,U,69013M,2024-01-11 21:10:34,259808,1.02843362,0.0561436,1.5926,249.8941,208.6255,148.7899,0,999,2150,0,0.00000059,0,4160109,0 TITAN 3C TRANSTAGE DEB,1 43454U 69013M   24011.88234097  .00000059  00000-0  00000-0 0  9992,2 43454   1.5926 249.8941 0561436 208.6255 148.7899  1.02843362 21508,1969-013M,43454,41458.889,1400.188,37408.406,32753.103,0
GENERATED VIA SPACETRACK.ORG API,18 SPCS,44307,YAMAL 601,PAYLOAD,U,19031A,2024-01-11 21:01:56,582976,1.00271194,0.0002371,0.023,78.682,220.7174,175.9638,0,999,1702,0,0.00000133,0,4159545,0 YAMAL 601,1 44307U 19031A   24011.87634934  .00000133  00000-0  00000-0 0  9991,2 44307   0.0230  78.6820 0002371 220.7174 175.9638  1.00271194 17026,2019-031A,44307,42164.898,1436.105,35796.760,35776.765,0
GENERATED VIA SPACETRACK.ORG API,18 SPCS,38699,TITAN 3C TRANSTAGE DEB,DEBRIS,U,68081Z,2024-01-11 21:00:18,840384,1.00858328,0.0099687,1.4194,334.8493,343.3174,150.5198,0,999,4292,0,0.00000079,0,4159545,0 TITAN 3C TRANSTAGE DEB,1 38699U 68081Z   24011.87521806  .00000079  00000-0  00000-0 0  9999,2 38699   1.4194 334.8493 0099687 343.3174 150.5198  1.00858328 42925,1968-081Z,38699,42001.100,1427.745,36041.661,35204.269,0
GENERATED VIA SPACETRACK.ORG API,18 SPCS,41384,IRNSS 1F,PAYLOAD,U,16015A,2024-01-11 20:57:10,870272,1.00280417,0.002261,3.2113,124.0022,183.1291,150.627,0,999,2876,0,0.00000169,0,4159545,0 IRNSS 1F,1 41384U 16015A   24011.87304248  .00000169  00000-0  00000-0 0  9993,2 41384   3.2113 124.0022 0022610 183.1291 150.6270  1.00280417 28766,2016-015A,41384,42162.312,1435.973,35879.506,35688.848,0
GENERATED VIA SPACETRACK.ORG API,18 SPCS,42749,ECHOSTAR 21,PAYLOAD,U,17032A,2024-01-11 20:50:47,413248,1.00271692,0.0002099,2.82,316.5965,333.0211,144.189,0,999,2421,0,0.00000082,0,4159545,0 ECHOSTAR 21,1 42749U 17032A   24011.86860432  .00000082  00000-0  00000-0 0  9994,2 42749   2.8200 316.5965 0002099 333.0211 144.1890  1.00271692 24212,2017-032A,42749,42164.758,1436.098,35795.473,35777.773,0
GENERATED VIA SPACETRACK.ORG API,18 SPCS,42915,TDRS 13,PAYLOAD,U,17047A,2024-01-11 20:44:31,475616,1.0027084,0.0012118,3.7771,341.4728,114.7644,314.206,0,999,2345,0,-0.00000083,0,4159545,0 TDRS 13,1 42915U 17047A   24011.86425319 -.00000083  00000-0  00000-0 0  9998,2 42915   3.7771 341.4728 0012118 114.7644 314.2060  1.00270840 23459,2017-047A,42915,42164.997,1436.110,35837.957,35735.766,0
GENERATED VIA SPACETRACK.ORG API,18 SPCS,25967,UFO 10 (USA 146),PAYLOAD,U,99063A,2024-01-11 20:41:15,986976,1.00267039,0.0004946,9.3594,31.3094,237.096,129.8781,0,999,8845,0,-0.0000018,0,4159545,0 UFO 10 (USA 146),1 25967U 99063A   24011.86199059 -.00000180  00000-0  00000-0 0  9991,2 25967   9.3594  31.3094 0004946 237.0960 129.8781  1.00267039 88450,1999-063A,25967,42166.062,1436.165,35808.783,35767.072,0
GENERATED VIA SPACETRACK.ORG API,18 SPCS,25967,UFO 10 (USA 146),PAYLOAD,U,99063A,2024-01-11 20:41:15,986976,1.00267039,0.0004946,9.3594,31.3094,237.096,129.8781,0,999,8844,0,-0.0000018,0,4159703,0 UFO 10 (USA 146),1 25967U 99063A   24011.86199059 -.00000180  00000-0  00000+0 0  9990,2 25967   9.3594  31.3094 0004946 237.0960 129.8781  1.00267039 88449,1999-063A,25967,42166.062,1436.165,35808.783,35767.072,0
GENERATED VIA SPACETRACK.ORG API,18 SPCS,33373,NIMIQ 4,PAYLOAD,U,08044A,2024-01-11 20:24:20,954592,1.00266426,0.0002726,0.0353,73.755,243.69,17.5149,0,999,5608,0,-0.00000207,0,4159545,0 NIMIQ 4,1 33373U 08044A   24011.85024253 -.00000207  00000-0  00000-0 0  9992,2 33373   0.0353  73.7550 0002726 243.6900  17.5149  1.00266426 56083,2008-044A,33373,42166.234,1436.174,35799.594,35776.605,0
GENERATED VIA SPACETRACK.ORG API,18 SPCS,41937,SBIRS GEO 4 (USA 273),PAYLOAD,U,17004A,2024-01-11 20:20:05,316000,1.00270823,0.0002209,1.4902,345.6336,302.7792,30.6493,0,999,2570,0,-0.00000128,0,4159545,0 SBIRS GEO 4 (USA 273),1 41937U 17004A   24011.84728375 -.00000128  00000-0  00000-0 0  9990,2 41937   1.4902 345.6336 0002209 302.7792  30.6493  1.00270823 25707,2017-004A,41937,42165.002,1436.111,35796.181,35777.552,0
GENERATED VIA SPACETRACK.ORG API,18 SPCS,43162,SBIRS GEO 3 (USA 282),PAYLOAD,U,18009A,2024-01-11 20:02:10,132800,1.00271513,0.0001533,2.561,330.1465,321.9535,319.8731,0,999,2194,0,0.00000145,0,4159545,0 SBIRS GEO 3 (USA 282),1 43162U 18009A   24011.83483950  .00000145  00000-0  00000-0 0  9992,2 43162   2.5610 330.1465 0001533 321.9535 319.8731  1.00271513 21942,2018-009A,43162,42164.808,1436.101,35793.137,35780.209,0
GENERATED VIA SPACETRACK.ORG API,18 SPCS,25001,TITAN 3C TRANSTAGE DEB,DEBRIS,U,68081H,2024-01-11 19:55:39,157248,1.01691648,0.0062192,1.0751,340.8613,41.4461,205.2942,0,999,10929,0,0.00000094,0,4159545,0 TITAN 3C TRANSTAGE DEB,1 25001U 68081H   24011.83031432  .00000094  00000-0  00000-0 0  9996,2 25001   1.0751 340.8613 0062192  41.4461 205.2942  1.01691648109290,1968-081H,25001,41771.331,1416.045,35652.981,35133.412,0
GENERATED VIA SPACETRACK.ORG API,18 SPCS,29055,ASTRA 1KR,PAYLOAD,U,06012A,2024-01-11 19:53:42,684864,1.00272401,0.0004464,0.0747,274.9765,345.0736,168.3761,0,999,6484,0,0.00000133,0,4159354,0 ASTRA 1KR,1 29055U 06012A   24011.82896626  .00000133  00000-0  00000+0 0  9991,2 29055   0.0747 274.9765 0004464 345.0736 168.3761  1.00272401 64848,2006-012A,29055,42164.559,1436.088,35805.247,35767.602,0
GENERATED VIA SPACETRACK.ORG API,18 SPCS,33436,ASTRA 1M,PAYLOAD,U,08057A,2024-01-11 19:53:42,684864,1.00270442,0.0001292,0.0327,78.9521,151.3438,198.1347,0,999,5558,0,0.00000133,0,4159335,0 ASTRA 1M,1 33436U 08057A   24011.82896626  .00000133  00000-0  00000+0 0  9990,2 33436   0.0327  78.9521 0001292 151.3438 198.1347  1.00270442 55580,2008-057A,33436,42165.108,1436.116,35792.421,35781.526,0
GENERATED VIA SPACETRACK.ORG API,18 SPCS,42915,TDRS 13,PAYLOAD,U,17047A,2024-01-11 19:08:21,279264,1.00270846,0.0012123,3.7772,341.4711,114.776,290.0879,0,999,2348,0,-0.00000082,0,4159457,0 TDRS 13,1 42915U 17047A   24011.79746851 -.00000082  00000-0  00000+0 0  9995,2 42915   3.7772 341.4711 0012123 114.7760 290.0879  1.00270846 23485,2017-047A,42915,42164.995,1436.110,35837.977,35735.744,0
GENERATED VIA SPACETRACK.ORG API,18 SPCS,20253,FLTSATCOM 8 (USA 46),PAYLOAD,U,89077A,2024-01-11 18:59:33,762336,1.00276927,0.0006188,12.6829,356.527,309.6413,215.2893,0,999,25172,0,-0.00000356,0,4159545,0 FLTSATCOM 8 (USA 46),1 20253U 89077A   24011.79136299 -.00000356  00000-0  00000-0 0  9992,2 20253  12.6829 356.5270 0006188 309.6413 215.2893  1.00276927251720,1989-077A,20253,42163.291,1436.023,35811.246,35759.065,0
GENERATED VIA SPACETRACK.ORG API,18 SPCS,8832,TITAN 3C TRANSTAGE DEB,DEBRIS,U,76023J,2024-01-11 18:40:28,906176,0.98259529,0.0137334,19.9874,53.9453,72.6396,13.1663,0,999,10887,0,-0.00000165,0,4159299,0 TITAN 3C TRANSTAGE DEB,1  8832U 76023J   24011.77811234 -.00000165  00000-0  00000+0 0  9992,2  8832  19.9874  53.9453 0137334  72.6396  13.1663  0.98259529108877,1976-023J,8832,42738.446,1465.507,36947.255,35773.366,0
GENERATED VIA SPACETRACK.ORG API,18 SPCS,8832,TITAN 3C TRANSTAGE DEB,DEBRIS,U,76023J,2024-01-11 18:40:28,906176,0.98259529,0.0137334,19.9874,53.9453,72.6396,13.1663,0,999,10888,0,-0.00000165,0,4159545,0 TITAN 3C TRANSTAGE DEB,1 08832U 76023J   24011.77811234 -.00000165  00000-0  00000-0 0  9993,2 08832  19.9874  53.9453 0137334  72.6396  13.1663  0.98259529108888,1976-023J,8832,42738.446,1465.507,36947.255,35773.366,0
GENERATED VIA SPACETRACK.ORG API,18 SPCS,28945,SPAINSAT,PAYLOAD,U,06007A,2024-01-11 18:36:39,343968,1.0027073,0.0004733,0.0192,282.9634,345.1366,91.8458,0,999,6531,0,-0.00000203,0,4159756,0 SPAINSAT,1 28945U 06007A   24011.77545537 -.00000203  00000-0  00000+0 0  9997,2 28945   0.0192 282.9634 0004733 345.1366  91.8458  1.00270730 65311,2006-007A,28945,42165.028,1436.112,35806.849,35766.936,0
GENERATED VIA SPACETRACK.ORG API,18 SPCS,28945,SPAINSAT,PAYLOAD,U,06007A,2024-01-11 18:36:39,276576,1.00270666,0.0004751,0.0179,284.1185,344.1353,91.6918,0,999,6532,0,-0.00000203,0,4160109,0 SPAINSAT,1 28945U 06007A   24011.77545459 -.00000203  00000-0  00000-0 0  9991,2 28945   0.0179 284.1185 0004751 344.1353  91.6918  1.00270666 65324,2006-007A,28945,42165.046,1436.113,35806.943,35766.878,0
GENERATED VIA SPACETRACK.ORG API,18 SPCS,28945,SPAINSAT,PAYLOAD,U,06007A,2024-01-11 18:36:38,399616,1.00271633,0.0004702,0.042,232.7275,35.0355,92.1729,0,999,6531,0,-0.00000203,0,4159494,0 SPAINSAT,1 28945U 06007A   24011.77544444 -.00000203  00000-0  00000+0 0  9993,2 28945   0.0420 232.7275 0004702  35.0355  92.1729  1.00271633 65316,2006-007A,28945,42164.775,1436.099,35806.465,35766.814,0
